[{"OBJECT_NAME":"STARLINK-6310","OBJECT_ID":"2023-065AG","EPOCH":"2026-03-09T22:00:01.999584","MEAN_MOTION":15.13128188,"ECCENTRICITY":0.00017884,"INCLINATION":42.9996,"RA_OF_ASC_NODE":195.8795,"ARG_OF_PERICENTER":265.7074,"MEAN_ANOMALY":13.4046,"EPHEMERIS_TYPE":0,"CLASSIFICATION_TYPE":"U","NORAD_CAT_ID":56533,"ELEMENT_SET_NO":999,"REV_AT_EPOCH":547,"BSTAR":0.0040477251,"MEAN_MOTION_DOT":0.00073522,"MEAN_MOTION_DDOT":0},{"OBJECT_NAME":"OBJECT A","OBJECT_ID":"2024-105A","EPOCH":"2026-03-09T23:44:38.986368","MEAN_MOTION":15.16488121,"ECCENTRICITY":0.00126096,"INCLINATION":97.5907,"RA_OF_ASC_NODE":84.1581,"ARG_OF_PERICENTER":205.4504,"MEAN_ANOMALY":154.6109,"EPHEMERIS_TYPE":0,"CLASSIFICATION_TYPE":"U","NORAD_CAT_ID":59917,"ELEMENT_SET_NO":999,"REV_AT_EPOCH":9799,"BSTAR":0.00023793898,"MEAN_MOTION_DOT":4.573e-5,"MEAN_MOTION_DDOT":0}]
